SAMPEX
1 22012U 92038A   09132.11471116  .00002346  00000-0  57742-4 0  8988
2 22012 081.6385 344.6301 0048130 039.5837 320.8901 15.38845473928866
TOPEX/POSEIDON
1 22076U 92052A   09131.94192993 -.00000038 +00000-0 +10000-3 0 03535
2 22076 066.0320 145.9983 0007930 265.3380 094.6730 12.80947256783608
TDRS 6
1 22314U 93003B   09131.51819318 +.00000095 +00000-0 +10000-3 0 04709
2 22314 009.1252 059.1227 0006591 337.0883 208.5930 01.00279826059817
FAST
1 24285U 96049A   09133.18444126  .00000315  00000-0  28335-4 0  7739
2 24285 082.9720 076.2454 1997379 233.6616 106.3248 11.26193295514598
CXO
1 25867U 99040B   09132.12500000 +.00000298 +00000-0 +10000-3 0 03226
2 25867 065.2923 070.4297 7459513 276.0695 359.6709 00.37806577004876
TELSTAR 12 (ORION 2)
1 25949U 99059A   09131.92834822 -.00000117  00000-0  10000-3 0  6703
2 25949 000.0657 085.7680 0003031 320.0986 143.1654 01.00271979 35017
NOAA 16
1 26536U 00055A   09132.30843460 -.00000223  00000-0 -95270-4 0  3984
2 26536 099.1751 135.1081 0010892 027.3979 332.7779 14.12516453445230
IBEX
1 33401U 08051A   08322.28291206 -.00000938 +00000-0 +10000-3 0 00053
2 33401 014.0406 072.5742 8843496 056.3560 009.4607 00.13253372000071
HST                     
1 20580U 90037B   09132.93383239  .00000388  00000-0  17126-4 0  3915
2 20580  28.4692 332.3792 0003661 283.8491  76.1691 15.00483233844553
POLAR
1 23802U 96013A   09053.22528995 +.00000077 +00000-0 +10000-3 0 06583
2 23802 085.1933 323.6503 6021382 081.4626 338.5274 01.29847079062745

